STARLINK-31959          
1 59925U 24106D   26068.41087725 -.00001364  00000+0 -40088-4 0  9998
2 59925  43.0019 330.2606 0000556  12.7050 347.3816 15.27564146100521
FLOCK 4G-10             
1 62670U 25009BP  26068.70827885  .00013952  00000+0  52624-3 0  9995
2 62670  97.3967 150.5883 0003469 341.4844  18.6269 15.27155944121340
